1 43058U 17079D   21001.53739855  .00000009  00000-0  00000+0 0  9991
2 43058  56.1154 276.3572 0004847 291.1945  68.8209  1.70473644 19010
1 43058U 17079D   21001.53739855  .00000009  00000-0  00000-0 0  9992
2 43058  56.1154 276.3572 0004847 291.1945  68.8209  1.70473644 19043
1 43058U 17079D   21002.12398681  .00000009  00000-0  00000-0 0  9996
2 43058  56.1148 276.3410 0004843 291.2496  68.7666  1.70473628 19054
1 43058U 17079D   21003.88374399  .00000003  00000-0  00000+0 0  9993
2 43058  56.1133 276.2927 0004809 291.7434  68.2704  1.70473593 19058
1 43058U 17079D   21003.88374399  .00000003  00000-0  00000-0 0  9994
2 43058  56.1133 276.2927 0004809 291.7434  68.2704  1.70473593 19081
1 43058U 17079D   21005.05691058 -.00000003  00000-0  00000+0 0  9999
2 43058  56.1123 276.2604 0004782 292.1152  67.8943  1.70473588 19077
1 43058U 17079D   21005.05691058 -.00000003  00000-0  00000-0 0  9990
2 43058  56.1123 276.2604 0004782 292.1152  67.8943  1.70473588 19101
1 43058U 17079D   21006.81666389 -.00000010  00000-0  00000+0 0  9991
2 43058  56.1112 276.2120 0004699 293.0603  66.9437  1.70473561 19109
1 43058U 17079D   21006.81666389 -.00000010  00000-0  00000-0 0  9992
2 43058  56.1112 276.2120 0004699 293.0603  66.9437  1.70473561 19132
1 43058U 17079D   21007.98983625 -.00000011  00000-0  00000+0 0  9996
2 43058  56.1102 276.1797 0004660 293.4431  66.5601  1.70473574 19123
1 43058U 17079D   21007.98983625 -.00000011  00000-0  00000-0 0  9997
2 43058  56.1102 276.1797 0004660 293.4431  66.5601  1.70473574 19156
1 43058U 17079D   21011.50938328 -.00000004  00000-0  00000+0 0  9991
2 43058  56.1076 276.0828 0004553 294.4079  65.6102  1.70473614 19184
1 43058U 17079D   21011.50938328 -.00000004  00000-0  00000-0 0  9992
2 43058  56.1076 276.0828 0004553 294.4079  65.6102  1.70473614 19218
1 43058U 17079D   21012.09597532 -.00000004  00000-0  00000-0 0  9995
2 43058  56.1071 276.0666 0004537 294.5476  65.4737  1.70473636 19224
1 43058U 17079D   21015.02893032 -.00000011  00000-0  00000+0 0  9992
2 43058  56.1045 275.9859 0004302 296.8146  63.2173  1.70473653 19247
1 43058U 17079D   21015.02893032 -.00000011  00000-0  00000-0 0  9993
2 43058  56.1045 275.9859 0004302 296.8146  63.2173  1.70473653 19270
1 43058U 17079D   21016.20210071 -.00000015  00000-0  00000+0 0  9993
2 43058  56.1036 275.9536 0004292 296.8492  63.1814  1.70473722 19261
1 43058U 17079D   21016.20210071 -.00000015  00000-0  00000-0 0  9994
2 43058  56.1036 275.9536 0004292 296.8492  63.1814  1.70473722 19294
1 43058U 17079D   21017.96185829 -.00000017  00000-0  00000+0 0  9991
2 43058  56.1022 275.9052 0004147 298.0757  61.9522  1.70473754 19296
1 43058U 17079D   21017.96185829 -.00000017  00000-0  00000-0 0  9992
2 43058  56.1022 275.9052 0004147 298.0757  61.9522  1.70473754 19320
1 43058U 17079D   21018.54843128 -.00000017  00000-0  00000-0 0  9990
2 43058  56.1022 275.8891 0004309 296.3938  63.6303  1.70473924 19338
1 43058U 17079D   21020.89486324 -.00000007  00000-0  00000+0 0  9990
2 43058  56.1036 275.8245 0002686 325.6749  34.3731  1.70473348 19350
1 43058U 17079D   21020.89486324 -.00000007  00000-0  00000-0 0  9991
2 43058  56.1036 275.8245 0002686 325.6749  34.3731  1.70473348 19372
1 43058U 17079D   21022.06810270  .00000001  00000-0  00000+0 0  9995
2 43058  56.1000 275.7923 0002288   6.9250 353.1451  1.70473388 19374
1 43058U 17079D   21022.06810270  .00000001  00000-0  00000-0 0  9996
2 43058  56.1000 275.7923 0002288   6.9250 353.1451  1.70473388 19396
1 43058U 17079D   21025.00107310  .00000022  00000-0  00000+0 0  9999
2 43058  56.0970 275.7117 0002459  21.2103 338.8792  1.70472881 19422
1 43058U 17079D   21025.00107310  .00000022  00000-0  00000-0 0  9990
2 43058  56.0970 275.7117 0002459  21.2103 338.8792  1.70472881 19444
1 43058U 17079D   21026.17424887  .00000030  00000-0  00000+0 0  9998
2 43058  56.0962 275.6796 0002349  20.6745 339.4204  1.70473234 19448
1 43058U 17079D   21026.17424887  .00000030  00000-0  00000-0 0  9999
2 43058  56.0962 275.6796 0002349  20.6745 339.4204  1.70473234 19460
1 43058U 17079D   21026.76067794  .00000034  00000-0  00000+0 0  9997
2 43058  56.0942 275.6637 0003989 297.4669  62.5809  1.70474155 19448
1 43058U 17079D   21026.76067794  .00000034  00000-0  00000-0 0  9998
2 43058  56.0942 275.6637 0003989 297.4669  62.5809  1.70474155 19471
1 43058U 17079D   21029.10703535  .00000040  00000-0  00000+0 0  9995
2 43058  56.0923 275.5983 0004056 298.4387  61.6140  1.70473847 19483
1 43058U 17079D   21029.10703535  .00000040  00000-0  00000-0 0  9996
2 43058  56.0923 275.5983 0004056 298.4387  61.6140  1.70473847 19517
1 43058U 17079D   21030.86678768  .00000036  00000-0  00000+0 0  9994
2 43058  56.0910 275.5498 0004025 298.7956  61.2529  1.70473804 19515
1 43058U 17079D   21030.86678768  .00000036  00000-0  00000-0 0  9995
2 43058  56.0910 275.5498 0004025 298.7956  61.2529  1.70473804 19548
1 43058U 17079D   21033.79969404  .00000022  00000-0  00000+0 0  9994
2 43058  56.0903 275.4689 0003948 299.4668  60.5661  1.70473754 19567
1 43058U 17079D   21033.79969404  .00000022  00000-0  00000-0 0  9995
2 43058  56.0903 275.4689 0003948 299.4668  60.5661  1.70473754 19590
1 43058U 17079D   21038.49238803  .00000025  00000-0  00000+0 0  9991
2 43058  56.0867 275.3394 0003823 300.2760  59.7589  1.70473796 19648
1 43058U 17079D   21039.07897788  .00000025  00000-0  00000-0 0  9990
2 43058  56.0863 275.3232 0003816 300.3552  59.6818  1.70473807 19688
1 43058U 17079D   21039.07897805  .00000025  00000-0  00000-0 0  9990
2 43058  56.0863 275.3232 0003814 300.3108  59.7262  1.70473801 19681
1 43058U 17079D   21040.25215637  .00000024  00000-0  00000+0 0  9997
2 43058  56.0854 275.2909 0003797 300.4248  59.6154  1.70473807 19671
1 43058U 17079D   21040.25215637  .00000024  00000-0  00000-0 0  9998
2 43058  56.0854 275.2909 0003797 300.4248  59.6154  1.70473807 19705
1 43058U 17079D   21040.83874416  .00000023  00000-0  00000-0 0  9997
2 43058  56.0850 275.2747 0003768 300.4964  59.5447  1.70473830 19715
1 43058U 17079D   21042.01191553  .00000018  00000-0  00000+0 0  9996
2 43058  56.0841 275.2424 0003732 300.6732  59.3676  1.70473883 19702
1 43058U 17079D   21042.01191553  .00000018  00000-0  00000-0 0  9997
2 43058  56.0841 275.2424 0003732 300.6732  59.3676  1.70473883 19735
1 43058U 17079D   21043.18508249  .00000013  00000-0  00000+0 0  9994
2 43058  56.0833 275.2101 0003694 300.8507  59.1872  1.70473937 19722
1 43058U 17079D   21043.18508249  .00000013  00000-0  00000-0 0  9995
2 43058  56.0833 275.2101 0003694 300.8507  59.1872  1.70473937 19755
1 43058U 17079D   21045.53141003  .00000008  00000-0  00000+0 0  9990
2 43058  56.0816 275.1455 0003619 301.0035  59.0243  1.70474018 19766
1 43058U 17079D   21045.53141003  .00000008  00000-0  00000-0 0  9991
2 43058  56.0816 275.1455 0003619 301.0035  59.0243  1.70474018 19799
1 43058U 17079D   21046.11799259  .00000008  00000-0  00000-0 0  9998
2 43058  56.0812 275.1294 0003601 300.9881  59.0373  1.70474017 19809
1 43058U 17079D   21047.29115769  .00000012  00000-0  00000+0 0  9990
2 43058  56.0803 275.0971 0003582 300.8575  59.1637  1.70474044 19799
1 43058U 17079D   21047.29115769  .00000012  00000-0  00000-0 0  9991
2 43058  56.0803 275.0971 0003582 300.8575  59.1637  1.70474044 19823
1 43058U 17079D   21048.46432499  .00000017  00000-0  00000+0 0  9997
2 43058  56.0795 275.0648 0003572 300.7152  59.3038  1.70474077 19815
1 43058U 17079D   21048.46432499  .00000017  00000-0  00000-0 0  9998
2 43058  56.0795 275.0648 0003572 300.7152  59.3038  1.70474077 19848
1 43058U 17079D   21049.05091029  .00000021  00000-0  00000-0 0  9999
2 43058  56.0791 275.0487 0003551 300.7743  59.2446  1.70474100 19858
1 43058U 17079D   21050.22408333  .00000028  00000-0  00000+0 0  9996
2 43058  56.0783 275.0163 0003513 300.8029  59.2175  1.70474133 19840
1 43058U 17079D   21050.22408333  .00000028  00000-0  00000-0 0  9997
2 43058  56.0783 275.0163 0003513 300.8029  59.2175  1.70474133 19873
1 43058U 17079D   21051.98384824  .00000040  00000-0  00000+0 0  9992
2 43058  56.0770 274.9677 0003478 301.0089  59.0168  1.70474138 19871
1 43058U 17079D   21051.98384824  .00000040  00000-0  00000-0 0  9993
2 43058  56.0770 274.9677 0003478 301.0089  59.0168  1.70474138 19905
1 43058U 17079D   21053.15702714  .00000047  00000-0  00000+0 0  9992
2 43058  56.0762 274.9353 0003448 301.0622  58.9678  1.70474105 19893
1 43058U 17079D   21053.15702714  .00000047  00000-0  00000-0 0  9993
2 43058  56.0762 274.9353 0003448 301.0622  58.9678  1.70474105 19927
1 43058U 17079D   21053.74361595  .00000051  00000-0  00000-0 0  9991
2 43058  56.0758 274.9192 0003441 300.9943  59.0376  1.70474092 19933
1 43058U 17079D   21054.91679238  .00000055  00000-0  00000+0 0  9990
2 43058  56.0749 274.8869 0003415 301.0107  59.0239  1.70474045 19923
1 43058U 17079D   21054.91679238  .00000055  00000-0  00000-0 0  9991
2 43058  56.0749 274.8869 0003415 301.0107  59.0239  1.70474045 19956
1 43058U 17079D   21056.08996331  .00000057  00000-0  00000+0 0  9998
2 43058  56.0741 274.8545 0003400 300.9459  59.0888  1.70474025 19948
1 43058U 17079D   21056.08996331  .00000057  00000-0  00000-0 0  9999
2 43058  56.0741 274.8545 0003400 300.9459  59.0888  1.70474025 19971
1 43058U 17079D   21057.84971001  .00000053  00000-0  00000+0 0  9996
2 43058  56.0729 274.8059 0003378 300.8938  59.1347  1.70473985 19977
1 43058U 17079D   21057.84971011  .00000053  00000-0  00000-0 0  9998
2 43058  56.0729 274.8059 0003372 300.9407  59.0878  1.70473976 20007
1 43058U 17079D   21060.19602591  .00000040  00000-0  00000+0 0  9999
2 43058  56.0713 274.7412 0003337 300.9222  59.0899  1.70473945 20018
1 43058U 17079D   21060.19602591  .00000040  00000-0  00000-0 0  9990
2 43058  56.0713 274.7412 0003337 300.9222  59.0899  1.70473945 20041
